{
  "type": "FeatureCollection",
  "features": [
    {
      "type": "Feature",
      "properties": {
        "norad_id": 34570,
        "name": "COSMOS 2251 DEB",
        "group": "cosmos-2251-debris",
        "lat": -54.296735530189295,
        "lon": 61.16386169929814,
        "alt_km": 1002.0180356852743,
        "timestamp": "2025-12-13T03:42:11.666689+00:00",
        "meta_object_name": "COSMOS 2251 DEB",
        "meta_object_id": "1993-036VG",
        "meta_epoch": "2025-12-10T10:15:47.270880",
        "meta_mean_motion": 13.99813899,
        "meta_eccentricity": 0.01902081,
        "meta_inclination": 73.9575,
        "meta_ra_of_asc_node": 222.3032,
        "meta_arg_of_pericenter": 105.3156,
        "meta_mean_anomaly": 75.4929,
        "meta_ephemeris_type": 0,
        "meta_classification_type": "U",
        "meta_norad_cat_id": 34570,
        "meta_element_set_no": 999,
        "meta_rev_at_epoch": 85568,
        "meta_bstar": 0.00064940557,
        "meta_mean_motion_dot": 1.09e-05,
        "meta_mean_motion_ddot": 0,
        "tle_line1": "1 34570U 93036VG  25344.42763045  .00001090  00000+0  64941-3 0  9995",
        "tle_line2": "2 34570  73.9575 222.3032 0190208 105.3156  75.4929 13.99813899855680"
      },
      "geometry": {
        "type": "Point",
        "coordinates": [
          61.16386169929814,
          -54.296735530189295
        ]
      }
    },
    {
      "type": "Feature",
      "properties": {
        "norad_id": 34571,
        "name": "COSMOS 2251 DEB",
        "group": "cosmos-2251-debris",
        "lat": 20.255209170294822,
        "lon": -4.404955318365304,
        "alt_km": 703.7537596433604,
        "timestamp": "2025-12-13T03:42:11.666700+00:00",
        "meta_object_name": "COSMOS 2251 DEB",
        "meta_object_id": "1993-036VH",
        "meta_epoch": "2025-12-09T06:09:38.106720",
        "meta_mean_motion": 14.48721172,
        "meta_eccentricity": 0.0066557,
        "meta_inclination": 74.0386,
        "meta_ra_of_asc_node": 188.9585,
        "meta_arg_of_pericenter": 224.7562,
        "meta_mean_anomaly": 134.8218,
        "meta_ephemeris_type": 0,
        "meta_classification_type": "U",
        "meta_norad_cat_id": 34571,
        "meta_element_set_no": 999,
        "meta_rev_at_epoch": 87243,
        "meta_bstar": 0.0025604,
        "meta_mean_motion_dot": 9.914e-05,
        "meta_mean_motion_ddot": 0,
        "tle_line1": "1 34571U 93036VH  25343.25669105  .00009914  00000+0  25604-2 0  9993",
        "tle_line2": "2 34571  74.0386 188.9585 0066557 224.7562 134.8218 14.48721172872439"
      },
      "geometry": {
        "type": "Point",
        "coordinates": [
          -4.404955318365304,
          20.255209170294822
        ]
      }
    },
    {
      "type": "Feature",
      "properties": {
        "norad_id": 34572,
        "name": "COSMOS 2251 DEB",
        "group": "cosmos-2251-debris",
        "lat": 22.544435816985093,
        "lon": 121.56348024195586,
        "alt_km": 767.9637854476086,
        "timestamp": "2025-12-13T03:42:11.666710+00:00",
        "meta_object_name": "COSMOS 2251 DEB",
        "meta_object_id": "1993-036VJ",
        "meta_epoch": "2025-12-12T01:39:23.053248",
        "meta_mean_motion": 14.49993335,
        "meta_eccentricity": 0.00629257,
        "meta_inclination": 74.0101,
        "meta_ra_of_asc_node": 116.7677,
        "meta_arg_of_pericenter": 190.7051,
        "meta_mean_anomaly": 290.1646,
        "meta_ephemeris_type": 0,
        "meta_classification_type": "U",
        "meta_norad_cat_id": 34572,
        "meta_element_set_no": 999,
        "meta_rev_at_epoch": 87368,
        "meta_bstar": 0.0042166825,
        "meta_mean_motion_dot": 0.00016761,
        "meta_mean_motion_ddot": 0,
        "tle_line1": "1 34572U 93036VJ  25346.06901682  .00016761  00000+0  42167-2 0  9996",
        "tle_line2": "2 34572  74.0101 116.7677 0062925 190.7051 290.1646 14.49993335873688"
      },
      "geometry": {
        "type": "Point",
        "coordinates": [
          121.56348024195586,
          22.544435816985093
        ]
      }
    },
    {
      "type": "Feature",
      "properties": {
        "norad_id": 34574,
        "name": "COSMOS 2251 DEB",
        "group": "cosmos-2251-debris",
        "lat": -55.412571456900125,
        "lon": 17.859235707949246,
        "alt_km": 690.6288706765345,
        "timestamp": "2025-12-13T03:42:11.666720+00:00",
        "meta_object_name": "COSMOS 2251 DEB",
        "meta_object_id": "1993-036VL",
        "meta_epoch": "2025-12-11T15:06:06.289344",
        "meta_mean_motion": 14.70586286,
        "meta_eccentricity": 0.00669128,
        "meta_inclination": 74.069,
        "meta_ra_of_asc_node": 45.2835,
        "meta_arg_of_pericenter": 66.6718,
        "meta_mean_anomaly": 84.5906,
        "meta_ephemeris_type": 0,
        "meta_classification_type": "U",
        "meta_norad_cat_id": 34574,
        "meta_element_set_no": 999,
        "meta_rev_at_epoch": 88762,
        "meta_bstar": 0.0014231911,
        "meta_mean_motion_dot": 8.935e-05,
        "meta_mean_motion_ddot": 0,
        "tle_line1": "1 34574U 93036VL  25345.62923946  .00008935  00000+0  14232-2 0  9992",
        "tle_line2": "2 34574  74.0690  45.2835 0066912  66.6718  84.5906 14.70586286887626"
      },
      "geometry": {
        "type": "Point",
        "coordinates": [
          17.859235707949246,
          -55.412571456900125
        ]
      }
    },
    {
      "type": "Feature",
      "properties": {
        "norad_id": 34576,
        "name": "COSMOS 2251 DEB",
        "group": "cosmos-2251-debris",
        "lat": -63.69322675810063,
        "lon": -7.200410895566258,
        "alt_km": 709.5458417140817,
        "timestamp": "2025-12-13T03:42:11.666730+00:00",
        "meta_object_name": "COSMOS 2251 DEB",
        "meta_object_id": "1993-036VN",
        "meta_epoch": "2025-12-12T04:16:47.347392",
        "meta_mean_motion": 14.55418481,
        "meta_eccentricity": 0.00081354,
        "meta_inclination": 74.0337,
        "meta_ra_of_asc_node": 139.2601,
        "meta_arg_of_pericenter": 274.782,
        "meta_mean_anomaly": 262.4694,
        "meta_ephemeris_type": 0,
        "meta_classification_type": "U",
        "meta_norad_cat_id": 34576,
        "meta_element_set_no": 999,
        "meta_rev_at_epoch": 88458,
        "meta_bstar": 0.0014321724,
        "meta_mean_motion_dot": 6.203e-05,
        "meta_mean_motion_ddot": 0,
        "tle_line1": "1 34576U 93036VN  25346.17832578  .00006203  00000+0  14322-2 0  9991",
        "tle_line2": "2 34576  74.0337 139.2601 0008135 274.7820 262.4694 14.55418481884587"
      },
      "geometry": {
        "type": "Point",
        "coordinates": [
          -7.200410895566258,
          -63.69322675810063
        ]
      }
    },
    {
      "type": "Feature",
      "properties": {
        "norad_id": 34579,
        "name": "COSMOS 2251 DEB",
        "group": "cosmos-2251-debris",
        "lat": 73.92721652912154,
        "lon": -39.812791950557276,
        "alt_km": 752.0605198156591,
        "timestamp": "2025-12-13T03:42:11.666740+00:00",
        "meta_object_name": "COSMOS 2251 DEB",
        "meta_object_id": "1993-036VR",
        "meta_epoch": "2025-12-12T03:03:52.835904",
        "meta_mean_motion": 14.45305922,
        "meta_eccentricity": 0.00275625,
        "meta_inclination": 74.0529,
        "meta_ra_of_asc_node": 225.0324,
        "meta_arg_of_pericenter": 293.7979,
        "meta_mean_anomaly": 218.6648,
        "meta_ephemeris_type": 0,
        "meta_classification_type": "U",
        "meta_norad_cat_id": 34579,
        "meta_element_set_no": 999,
        "meta_rev_at_epoch": 88165,
        "meta_bstar": 0.00065333354,
        "meta_mean_motion_dot": 2.278e-05,
        "meta_mean_motion_ddot": 0,
        "tle_line1": "1 34579U 93036VR  25346.12769486  .00002278  00000+0  65333-3 0  9993",
        "tle_line2": "2 34579  74.0529 225.0324 0027562 293.7979 218.6648 14.45305922881651"
      },
      "geometry": {
        "type": "Point",
        "coordinates": [
          -39.812791950557276,
          73.92721652912154
        ]
      }
    },
    {
      "type": "Feature",
      "properties": {
        "norad_id": 34582,
        "name": "COSMOS 2251 DEB",
        "group": "cosmos-2251-debris",
        "lat": 25.886092596369647,
        "lon": -80.40001057178179,
        "alt_km": 712.3596555762324,
        "timestamp": "2025-12-13T03:42:11.666750+00:00",
        "meta_object_name": "COSMOS 2251 DEB",
        "meta_object_id": "1993-036VU",
        "meta_epoch": "2025-12-12T05:57:15.247296",
        "meta_mean_motion": 14.4331996,
        "meta_eccentricity": 0.00478316,
        "meta_inclination": 74.0198,
        "meta_ra_of_asc_node": 273.2911,
        "meta_arg_of_pericenter": 23.5204,
        "meta_mean_anomaly": 336.8125,
        "meta_ephemeris_type": 0,
        "meta_classification_type": "U",
        "meta_norad_cat_id": 34582,
        "meta_element_set_no": 999,
        "meta_rev_at_epoch": 87940,
        "meta_bstar": 0.0012060937,
        "meta_mean_motion_dot": 4.097e-05,
        "meta_mean_motion_ddot": 0,
        "tle_line1": "1 34582U 93036VU  25346.24809314  .00004097  00000+0  12061-2 0  9995",
        "tle_line2": "2 34582  74.0198 273.2911 0047831  23.5204 336.8125 14.43319960879403"
      },
      "geometry": {
        "type": "Point",
        "coordinates": [
          -80.40001057178179,
          25.886092596369647
        ]
      }
    }
  ]
}